{"type": "FeatureCollection", "features": [ {"type": "Feature", "properties": {"norad_id": 66737, "name": "FLOCK 4H-34", "group": "last-30-days", "lat": -77.08358721405575, "lon": -143.02477527845497, "alt_km": 519.0356938485302, "timestamp": "2025-12-26T03:50:10.807037+00:00", "meta": {"OBJECT_NAME": "FLOCK 4H-34", "OBJECT_ID": "2025-276BZ", "EPOCH": "2025-12-25T18:47:17.083104", "MEAN_MOTION": 15.1818541, "ECCENTRICITY": 0.0002489, "INCLINATION": 97.4433, "RA_OF_ASC_NODE": 71.3599, "ARG_OF_PERICENTER": 157.9282, "MEAN_ANOMALY": 202.206, "EPHEMERIS_TYPE": 0, "CLASSIFICATION_TYPE": "U", "NORAD_CAT_ID": 66737, "ELEMENT_SET_NO": 999, "REV_AT_EPOCH": 335, "BSTAR": 0.00038569, "MEAN_MOTION_DOT": 7.82e-05, "MEAN_MOTION_DDOT": 0}, "tle": {"line1": "1 66737U 25276BZ  25359.78283661  .00007820  00000+0  38569-3 0  9996", "line2": "2 66737  97.4433  71.3599 0002489 157.9282 202.2060 15.18185410  3359"}}, "geometry": {"type": "Point", "coordinates": [-143.02477527845497, -77.08358721405575]}}, {"type": "Feature", "properties": {"norad_id": 66738, "name": "FLOCK 4H-35", "group": "last-30-days", "lat": -82.53461352822148, "lon": 165.9875488576021, "alt_km": 519.4815086838917, "timestamp": "2025-12-26T03:50:10.807047+00:00", "meta": {"OBJECT_NAME": "FLOCK 4H-35", "OBJECT_ID": "2025-276CA", "EPOCH": "2025-12-25T17:09:46.019808", "MEAN_MOTION": 15.18283762, "ECCENTRICITY": 0.0002605, "INCLINATION": 97.4398, "RA_OF_ASC_NODE": 71.283, "ARG_OF_PERICENTER": 142.7622, "MEAN_ANOMALY": 217.3793, "EPHEMERIS_TYPE": 0, "CLASSIFICATION_TYPE": "U", "NORAD_CAT_ID": 66738, "ELEMENT_SET_NO": 999, "REV_AT_EPOCH": 338, "BSTAR": 0.00049039, "MEAN_MOTION_DOT": 9.992e-05, "MEAN_MOTION_DDOT": 0}, "tle": {"line1": "1 66738U 25276CA  25359.71511597  .00009992  00000+0  49039-3 0  9998", "line2": "2 66738  97.4398  71.2830 0002605 142.7622 217.3793 15.18283762  3389"}}, "geometry": {"type": "Point", "coordinates": [165.9875488576021, -82.53461352822148]}}, {"type": "Feature", "properties": {"norad_id": 66739, "name": "FLOCK 4H-36", "group": "last-30-days", "lat": -63.45761676838008, "lon": -123.44666536252954, "alt_km": 518.4382356930164, "timestamp": "2025-12-26T03:50:10.807059+00:00", "meta": {"OBJECT_NAME": "FLOCK 4H-36", "OBJECT_ID": "2025-276CB", "EPOCH": "2025-12-25T17:16:15.830688", "MEAN_MOTION": 15.18032921, "ECCENTRICITY": 0.0002581, "INCLINATION": 97.4444, "RA_OF_ASC_NODE": 71.2955, "ARG_OF_PERICENTER": 173.8978, "MEAN_ANOMALY": 186.2288, "EPHEMERIS_TYPE": 0, "CLASSIFICATION_TYPE": "U", "NORAD_CAT_ID": 66739, "ELEMENT_SET_NO": 999, "REV_AT_EPOCH": 409, "BSTAR": 0.00047886, "MEAN_MOTION_DOT": 9.685e-05, "MEAN_MOTION_DDOT": 0}, "tle": {"line1": "1 66739U 25276CB  25359.71962767  .00009685  00000+0  47886-3 0  9995", "line2": "2 66739  97.4444  71.2955 0002581 173.8978 186.2288 15.18032921  4093"}}, "geometry": {"type": "Point", "coordinates": [-123.44666536252954, -63.45761676838008]}}, {"type": "Feature", "properties": {"norad_id": 66740, "name": "TRANSPORTER-15CC", "group": "last-30-days", "lat": -34.74559777038969, "lon": -113.49549871166577, "alt_km": 517.3701883063204, "timestamp": "2025-12-26T03:50:10.807069+00:00", "meta": {"OBJECT_NAME": "TRANSPORTER-15CC", "OBJECT_ID": "2025-276CC", "EPOCH": "2025-12-25T18:58:49.801152", "MEAN_MOTION": 15.17758641, "ECCENTRICITY": 0.0002242, "INCLINATION": 97.4406, "RA_OF_ASC_NODE": 71.3427, "ARG_OF_PERICENTER": 221.9651, "MEAN_ANOMALY": 138.1411, "EPHEMERIS_TYPE": 0, "CLASSIFICATION_TYPE": "U", "NORAD_CAT_ID": 66740, "ELEMENT_SET_NO": 999, "REV_AT_EPOCH": 410, "BSTAR": 0.00050109, "MEAN_MOTION_DOT": 0.00010058, "MEAN_MOTION_DDOT": 0}, "tle": {"line1": "1 66740U 25276CC  25359.79085418  .00010058  00000+0  50109-3 0  9992", "line2": "2 66740  97.4406  71.3427 0002242 221.9651 138.1411 15.17758641  4104"}}, "geometry": {"type": "Point", "coordinates": [-113.49549871166577, -34.74559777038969]}}, {"type": "Feature", "properties": {"norad_id": 66741, "name": "TRANSPORTER-15CD", "group": "last-30-days", "lat": -28.354477701934417, "lon": -112.35013465577968, "alt_km": 518.0510923112306, "timestamp": "2025-12-26T03:50:10.807087+00:00", "meta": {"OBJECT_NAME": "TRANSPORTER-15CD", "OBJECT_ID": "2025-276CD", "EPOCH": "2025-12-25T19:00:30.051072", "MEAN_MOTION": 15.17647598, "ECCENTRICITY": 0.0001181, "INCLINATION": 97.4402, "RA_OF_ASC_NODE": 71.3326, "ARG_OF_PERICENTER": 210.5325, "MEAN_ANOMALY": 149.584, "EPHEMERIS_TYPE": 0, "CLASSIFICATION_TYPE": "U", "NORAD_CAT_ID": 66741, "ELEMENT_SET_NO": 999, "REV_AT_EPOCH": 410, "BSTAR": 0.00016964, "MEAN_MOTION_DOT": 3.347e-05, "MEAN_MOTION_DDOT": 0}, "tle": {"line1": "1 66741U 25276CD  25359.79201448  .00003347  00000+0  16964-3 0  9990", "line2": "2 66741  97.4402  71.3326 0001181 210.5325 149.5840 15.17647598  4102"}}, "geometry": {"type": "Point", "coordinates": [-112.35013465577968, -28.354477701934417]}}, {"type": "Feature", "properties": {"norad_id": 66742, "name": "TRANSPORTER-15CE", "group": "last-30-days", "lat": -38.650165783460324, "lon": -114.30254254284861, "alt_km": 516.9361296317838, "timestamp": "2025-12-26T03:50:10.807097+00:00", "meta": {"OBJECT_NAME": "TRANSPORTER-15CE", "OBJECT_ID": "2025-276CE", "EPOCH": "2025-12-25T18:57:56.882016", "MEAN_MOTION": 15.18119907, "ECCENTRICITY": 0.00011, "INCLINATION": 97.4397, "RA_OF_ASC_NODE": 71.3325, "ARG_OF_PERICENTER": 177.1136, "MEAN_ANOMALY": 183.0105, "EPHEMERIS_TYPE": 0, "CLASSIFICATION_TYPE": "U", "NORAD_CAT_ID": 66742, "ELEMENT_SET_NO": 999, "REV_AT_EPOCH": 410, "BSTAR": 0.011283, "MEAN_MOTION_DOT": 0.00237592, "MEAN_MOTION_DDOT": 0}, "tle": {"line1": "1 66742U 25276CE  25359.79024169  .00237592  00000+0  11283-1 0  9992", "line2": "2 66742  97.4397  71.3325 0001100 177.1136 183.0105 15.18119907  4100"}}, "geometry": {"type": "Point", "coordinates": [-114.30254254284861, -38.650165783460324]}}, {"type": "Feature", "properties": {"norad_id": 66743, "name": "TRANSPORTER-15CF", "group": "last-30-days", "lat": 22.50350381402927, "lon": -105.22711441318901, "alt_km": 536.6684183395191, "timestamp": "2025-12-26T03:50:10.807108+00:00", "meta": {"OBJECT_NAME": "TRANSPORTER-15CF", "OBJECT_ID": "2025-276CF", "EPOCH": "2025-12-25T04:50:49.043328", "MEAN_MOTION": 15.11484429, "ECCENTRICITY": 0.0034918, "INCLINATION": 97.4397, "RA_OF_ASC_NODE": 70.743, "ARG_OF_PERICENTER": 109.5161, "MEAN_ANOMALY": 250.9846, "EPHEMERIS_TYPE": 0, "CLASSIFICATION_TYPE": "U", "NORAD_CAT_ID": 66743, "ELEMENT_SET_NO": 999, "REV_AT_EPOCH": 401, "BSTAR": -0.23724, "MEAN_MOTION_DOT": -0.03580195, "MEAN_MOTION_DDOT": 0}, "tle": {"line1": "1 66743U 25276CF  25359.20195652 -.03580195  00000+0 -23724+0 0  9991", "line2": "2 66743  97.4397  70.7430 0034918 109.5161 250.9846 15.11484429  4014"}}, "geometry": {"type": "Point", "coordinates": [-105.22711441318901, 22.50350381402927]}}, {"type": "Feature", "properties": {"norad_id": 66744, "name": "TRANSPORTER-15CG", "group": "last-30-days", "lat": -40.055217934714356, "lon": -114.59711794974966, "alt_km": 497.7286955415202, "timestamp": "2025-12-26T03:50:10.807118+00:00", "meta": {"OBJECT_NAME": "TRANSPORTER-15CG", "OBJECT_ID": "2025-276CG", "EPOCH": "2025-12-25T03:09:31.796064", "MEAN_MOTION": 15.19341003, "ECCENTRICITY": 0.00243198, "INCLINATION": 97.3868, "RA_OF_ASC_NODE": 70.659, "ARG_OF_PERICENTER": 231.5349, "MEAN_ANOMALY": 128.3704, "EPHEMERIS_TYPE": 0, "CLASSIFICATION_TYPE": "U", "NORAD_CAT_ID": 66744, "ELEMENT_SET_NO": 999, "REV_AT_EPOCH": 400, "BSTAR": 0.00064815362, "MEAN_MOTION_DOT": 0.00013749, "MEAN_MOTION_DDOT": 0}, "tle": {"line1": "1 66744U 25276CG  25359.13161801  .00013749  00000+0  64815-3 0  9994", "line2": "2 66744  97.3868  70.6590 0024319 231.5349 128.3704 15.19341003  4009"}}, "geometry": {"type": "Point", "coordinates": [-114.59711794974966, -40.055217934714356]}}, {"type": "Feature", "properties": {"norad_id": 66745, "name": "TRANSPORTER-15CH", "group": "last-30-days", "lat": -12.893691422228793, "lon": -110.02597874578535, "alt_km": 517.3730874651519, "timestamp": "2025-12-26T03:50:10.807128+00:00", "meta": {"OBJECT_NAME": "TRANSPORTER-15CH", "OBJECT_ID": "2025-276CH", "EPOCH": "2025-12-25T19:04:32.421216", "MEAN_MOTION": 15.17411298, "ECCENTRICITY": 0.0001285, "INCLINATION": 97.4405, "RA_OF_ASC_NODE": 71.3298, "ARG_OF_PERICENTER": 190.8406, "MEAN_ANOMALY": 169.28, "EPHEMERIS_TYPE": 0, "CLASSIFICATION_TYPE": "U", "NORAD_CAT_ID": 66745, "ELEMENT_SET_NO": 999, "REV_AT_EPOCH": 410, "BSTAR": 0.00015232, "MEAN_MOTION_DOT": 2.978e-05, "MEAN_MOTION_DDOT": 0}, "tle": {"line1": "1 66745U 25276CH  25359.79481969  .00002978  00000+0  15232-3 0  9998", "line2": "2 66745  97.4405  71.3298 0001285 190.8406 169.2800 15.17411298  4103"}}, "geometry": {"type": "Point", "coordinates": [-110.02597874578535, -12.893691422228793]}}, {"type": "Feature", "properties": {"norad_id": 66746, "name": "TRANSPORTER-15CJ", "group": "last-30-days", "lat": -30.84315648595837, "lon": -112.71843029865806, "alt_km": 504.7690548862365, "timestamp": "2025-12-26T03:50:10.807138+00:00", "meta": {"OBJECT_NAME": "TRANSPORTER-15CJ", "OBJECT_ID": "2025-276CJ", "EPOCH": "2025-12-25T19:00:28.298016", "MEAN_MOTION": 15.19447787, "ECCENTRICITY": 0.0013428, "INCLINATION": 97.3832, "RA_OF_ASC_NODE": 71.3628, "ARG_OF_PERICENTER": 194.092, "MEAN_ANOMALY": 165.9943, "EPHEMERIS_TYPE": 0, "CLASSIFICATION_TYPE": "U", "NORAD_CAT_ID": 66746, "ELEMENT_SET_NO": 999, "REV_AT_EPOCH": 410, "BSTAR": 0.00085286, "MEAN_MOTION_DOT": 0.00018082, "MEAN_MOTION_DDOT": 0}, "tle": {"line1": "1 66746U 25276CJ  25359.79199419  .00018082  00000+0  85286-3 0  9994", "line2": "2 66746  97.3832  71.3628 0013428 194.0920 165.9943 15.19447787  4108"}}, "geometry": {"type": "Point", "coordinates": [-112.71843029865806, -30.84315648595837]}}]}